{
  "type": "FeatureCollection",
  "features": [
    {
      "type": "Feature",
      "properties": {
        "norad_id": 35703,
        "name": "COSMOS 2251 DEB",
        "group": "cosmos-2251-debris",
        "lat": 33.143600458570155,
        "lon": 68.38659329401597,
        "alt_km": 599.0288296148528,
        "timestamp": "2025-12-05T07:38:19.241863+00:00",
        "meta_object_name": "COSMOS 2251 DEB",
        "meta_object_id": "1993-036APY",
        "meta_epoch": "2025-12-03T11:58:43.085856",
        "meta_mean_motion": 14.90122639,
        "meta_eccentricity": 0.00654009,
        "meta_inclination": 74.0435,
        "meta_ra_of_asc_node": 61.2566,
        "meta_arg_of_pericenter": 134.2302,
        "meta_mean_anomaly": 226.4277,
        "meta_ephemeris_type": 0,
        "meta_classification_type": "U",
        "meta_norad_cat_id": 35703,
        "meta_element_set_no": 999,
        "meta_rev_at_epoch": 66478,
        "meta_bstar": 0.0011722584,
        "meta_mean_motion_dot": 0.00011791,
        "meta_mean_motion_ddot": 0,
        "tle_line1": "1 35703U 93036APY 25337.49910979  .00011791  00000+0  11723-2 0  9991",
        "tle_line2": "2 35703  74.0435  61.2566 0065400 134.2302 226.4277 14.90122639664787"
      },
      "geometry": {
        "type": "Point",
        "coordinates": [
          68.38659329401597,
          33.143600458570155
        ]
      }
    },
    {
      "type": "Feature",
      "properties": {
        "norad_id": 35705,
        "name": "COSMOS 2251 DEB",
        "group": "cosmos-2251-debris",
        "lat": -52.1386616506368,
        "lon": 128.78988770081094,
        "alt_km": 684.5524515603356,
        "timestamp": "2025-12-05T07:38:19.241873+00:00",
        "meta_object_name": "COSMOS 2251 DEB",
        "meta_object_id": "1993-036AQA",
        "meta_epoch": "2025-12-03T05:18:59.084352",
        "meta_mean_motion": 14.71707631,
        "meta_eccentricity": 0.0034156,
        "meta_inclination": 74.2742,
        "meta_ra_of_asc_node": 154.0557,
        "meta_arg_of_pericenter": 110.0272,
        "meta_mean_anomaly": 250.4584,
        "meta_ephemeris_type": 0,
        "meta_classification_type": "U",
        "meta_norad_cat_id": 35705,
        "meta_element_set_no": 999,
        "meta_rev_at_epoch": 85786,
        "meta_bstar": 0.0035867,
        "meta_mean_motion_dot": 0.00022615,
        "meta_mean_motion_ddot": 0,
        "tle_line1": "1 35705U 93036AQA 25337.22151718  .00022615  00000+0  35867-2 0  9994",
        "tle_line2": "2 35705  74.2742 154.0557 0034156 110.0272 250.4584 14.71707631857866"
      },
      "geometry": {
        "type": "Point",
        "coordinates": [
          128.78988770081094,
          -52.1386616506368
        ]
      }
    },
    {
      "type": "Feature",
      "properties": {
        "norad_id": 35706,
        "name": "COSMOS 2251 DEB",
        "group": "cosmos-2251-debris",
        "lat": 19.38658795390824,
        "lon": -110.7679366066023,
        "alt_km": 800.4897525292181,
        "timestamp": "2025-12-05T07:38:19.241883+00:00",
        "meta_object_name": "COSMOS 2251 DEB",
        "meta_object_id": "1993-036AQB",
        "meta_epoch": "2025-12-01T13:14:17.826144",
        "meta_mean_motion": 13.65877076,
        "meta_eccentricity": 0.03419141,
        "meta_inclination": 73.888,
        "meta_ra_of_asc_node": 81.2903,
        "meta_arg_of_pericenter": 133.1878,
        "meta_mean_anomaly": 229.8353,
        "meta_ephemeris_type": 0,
        "meta_classification_type": "U",
        "meta_norad_cat_id": 35706,
        "meta_element_set_no": 999,
        "meta_rev_at_epoch": 61909,
        "meta_bstar": 0.0013112957,
        "meta_mean_motion_dot": 1.587e-05,
        "meta_mean_motion_ddot": 0,
        "tle_line1": "1 35706U 93036AQB 25335.55159521  .00001587  00000+0  13113-2 0  9994",
        "tle_line2": "2 35706  73.8880  81.2903 0341914 133.1878 229.8353 13.65877076619090"
      },
      "geometry": {
        "type": "Point",
        "coordinates": [
          -110.7679366066023,
          19.38658795390824
        ]
      }
    },
    {
      "type": "Feature",
      "properties": {
        "norad_id": 35711,
        "name": "COSMOS 2251 DEB",
        "group": "cosmos-2251-debris",
        "lat": 38.70133753830365,
        "lon": 41.45050988411619,
        "alt_km": 734.8461273243602,
        "timestamp": "2025-12-05T07:38:19.241893+00:00",
        "meta_object_name": "COSMOS 2251 DEB",
        "meta_object_id": "1993-036AQG",
        "meta_epoch": "2025-12-04T11:19:14.539584",
        "meta_mean_motion": 14.63763095,
        "meta_eccentricity": 0.0085131,
        "meta_inclination": 74.047,
        "meta_ra_of_asc_node": 236.3228,
        "meta_arg_of_pericenter": 339.3303,
        "meta_mean_anomaly": 20.4427,
        "meta_ephemeris_type": 0,
        "meta_classification_type": "U",
        "meta_norad_cat_id": 35711,
        "meta_element_set_no": 999,
        "meta_rev_at_epoch": 87650,
        "meta_bstar": 0.00064568,
        "meta_mean_motion_dot": 3.517e-05,
        "meta_mean_motion_ddot": 0,
        "tle_line1": "1 35711U 93036AQG 25338.47169606  .00003517  00000+0  64568-3 0  9995",
        "tle_line2": "2 35711  74.0470 236.3228 0085131 339.3303  20.4427 14.63763095876508"
      },
      "geometry": {
        "type": "Point",
        "coordinates": [
          41.45050988411619,
          38.70133753830365
        ]
      }
    },
    {
      "type": "Feature",
      "properties": {
        "norad_id": 35716,
        "name": "COSMOS 2251 DEB",
        "group": "cosmos-2251-debris",
        "lat": -41.60046980804751,
        "lon": -166.36006642217413,
        "alt_km": 704.0504347697743,
        "timestamp": "2025-12-05T07:38:19.241903+00:00",
        "meta_object_name": "COSMOS 2251 DEB",
        "meta_object_id": "1993-036AQM",
        "meta_epoch": "2025-12-02T22:21:42.031872",
        "meta_mean_motion": 14.60067337,
        "meta_eccentricity": 0.00884366,
        "meta_inclination": 73.9934,
        "meta_ra_of_asc_node": 212.9707,
        "meta_arg_of_pericenter": 56.5126,
        "meta_mean_anomaly": 321.7811,
        "meta_ephemeris_type": 0,
        "meta_classification_type": "U",
        "meta_norad_cat_id": 35716,
        "meta_element_set_no": 999,
        "meta_rev_at_epoch": 87484,
        "meta_bstar": 0.00016847867,
        "meta_mean_motion_dot": 8.23e-06,
        "meta_mean_motion_ddot": 0,
        "tle_line1": "1 35716U 93036AQM 25336.93173648  .00000823  00000+0  16848-3 0  9995",
        "tle_line2": "2 35716  73.9934 212.9707 0088436  56.5126 321.7811 14.60067337874842"
      },
      "geometry": {
        "type": "Point",
        "coordinates": [
          -166.36006642217413,
          -41.60046980804751
        ]
      }
    },
    {
      "type": "Feature",
      "properties": {
        "norad_id": 35717,
        "name": "COSMOS 2251 DEB",
        "group": "cosmos-2251-debris",
        "lat": -53.28312560362826,
        "lon": -151.30147859352533,
        "alt_km": 817.3862492360267,
        "timestamp": "2025-12-05T07:38:19.241913+00:00",
        "meta_object_name": "COSMOS 2251 DEB",
        "meta_object_id": "1993-036AQN",
        "meta_epoch": "2025-12-03T10:50:01.737600",
        "meta_mean_motion": 14.38379287,
        "meta_eccentricity": 0.00765766,
        "meta_inclination": 74.1608,
        "meta_ra_of_asc_node": 234.4851,
        "meta_arg_of_pericenter": 96.9396,
        "meta_mean_anomaly": 264.0477,
        "meta_ephemeris_type": 0,
        "meta_classification_type": "U",
        "meta_norad_cat_id": 35717,
        "meta_element_set_no": 999,
        "meta_rev_at_epoch": 73966,
        "meta_bstar": 0.0017319634,
        "meta_mean_motion_dot": 5.441e-05,
        "meta_mean_motion_ddot": 0,
        "tle_line1": "1 35717U 93036AQN 25337.45140900  .00005441  00000+0  17320-2 0  9995",
        "tle_line2": "2 35717  74.1608 234.4851 0076576  96.9396 264.0477 14.38379287739664"
      },
      "geometry": {
        "type": "Point",
        "coordinates": [
          -151.30147859352533,
          -53.28312560362826
        ]
      }
    },
    {
      "type": "Feature",
      "properties": {
        "norad_id": 35718,
        "name": "COSMOS 2251 DEB",
        "group": "cosmos-2251-debris",
        "lat": -34.83140996496577,
        "lon": 132.8417391749149,
        "alt_km": 677.8500402820309,
        "timestamp": "2025-12-05T07:38:19.241924+00:00",
        "meta_object_name": "COSMOS 2251 DEB",
        "meta_object_id": "1993-036AQP",
        "meta_epoch": "2025-11-28T18:49:36.496416",
        "meta_mean_motion": 14.68279459,
        "meta_eccentricity": 0.00123436,
        "meta_inclination": 74.0315,
        "meta_ra_of_asc_node": 156.9668,
        "meta_arg_of_pericenter": 206.7375,
        "meta_mean_anomaly": 153.316,
        "meta_ephemeris_type": 0,
        "meta_classification_type": "U",
        "meta_norad_cat_id": 35718,
        "meta_element_set_no": 999,
        "meta_rev_at_epoch": 65635,
        "meta_bstar": 0.0013999458,
        "meta_mean_motion_dot": 8.062e-05,
        "meta_mean_motion_ddot": 0,
        "tle_line1": "1 35718U 93036AQP 25332.78445019  .00008062  00000+0  13999-2 0  9996",
        "tle_line2": "2 35718  74.0315 156.9668 0012343 206.7375 153.3160 14.68279459656359"
      },
      "geometry": {
        "type": "Point",
        "coordinates": [
          132.8417391749149,
          -34.83140996496577
        ]
      }
    }
  ]
}